     2.100          NAVIGATION                              RINEX VERSION / TYPE
fic2rin                                 03/20/2012 00:03:40 PGM / RUN BY / DATE
                                                            END OF HEADER
30 12  3 19  1 59 28.0 -.898288562894D-04 -.160298441187D-10  .000000000000D+00
     .270000000000D+02  .274375000000D+02  .510306970619D-08  .902410224802D+00
     .134669244289D-05  .109096328961D-01  .330805778503D-05  .515362524796D+04
     .935680000000D+05 -.165775418282D-06 -.217048803971D+01 -.465661287308D-07
     .958844466532D+00  .318906250000D+03  .155595929753D+01 -.869679082767D-08
     .122147945095D-09  .100000000000D+01  .168000000000D+04  .000000000000D+00
     .485000000000D+01  .000000000000D+00 -.419095158577D-08  .270000000000D+02
     .864060000000D+05  .400000000000D+01
 5 12  3 19  1 59 44.0 -.295307021588D-03 -.420641299570D-11  .000000000000D+00
     .160000000000D+02  .134687500000D+02  .513592821774D-08  .165574119464D+01
     .748783349991D-06  .269598583691D-02  .461004674435D-05  .515361602211D+04
     .935840000000D+05 -.260770320892D-07  .107040992154D+01  .186264514923D-08
     .951371000307D+00  .286500000000D+03  .290283001624D+00 -.845249493748D-08
     .432160858377D-10  .100000000000D+01  .168000000000D+04  .000000000000D+00
     .240000000000D+01  .000000000000D+00 -.102445483208D-07  .160000000000D+02
     .864060000000D+05  .400000000000D+01
23 12  3 19  1 59 44.0  .222986564040D-03 -.352429196937D-11  .000000000000D+00
     .180000000000D+02 -.327187500000D+02  .449054419205D-08 -.200025403404D+00
    -.167079269886D-05  .762926170137D-02  .903010368347D-05  .515365974426D+04
     .935840000000D+05  .113621354103D-06  .213273982908D+01  .689178705215D-07
     .960782086899D+00  .205125000000D+03 -.302752353571D+01 -.813855328913D-08
    -.353943314588D-09  .100000000000D+01  .168000000000D+04  .000000000000D+00
     .240000000000D+01  .000000000000D+00 -.200234353542D-07  .180000000000D+02
     .864060000000D+05  .400000000000D+01
 1 12  3 19  2  0  0.0  .234982464463D-03  .682121026330D-11  .000000000000D+00
     .680000000000D+02  .320312500000D+02  .430339353933D-08 -.168141453211D+01
     .168383121490D-05  .563955167308D-03  .109821557999D-04  .515366074753D+04
     .936000000000D+05 -.521540641785D-07  .197409003677D-01 -.633299350739D-07
     .960636257373D+00  .170062500000D+03  .671035497836D+00 -.788139972051D-08
     .288940606965D-09  .100000000000D+01  .168000000000D+04  .000000000000D+00
     .240000000000D+01  .000000000000D+00  .838190317154D-08  .680000000000D+02
     .864060000000D+05  .400000000000D+01
 2 12  3 19  2  0  0.0  .383338425308D-03  .147792889038D-11  .000000000000D+00
     .630000000000D+02  .295000000000D+02  .503128100162D-08 -.290329030878D+00
     .152736902237D-05  .110483061289D-01  .104606151581D-04  .515366385460D+04
     .936000000000D+05  .197440385818D-06  .751649064629D-02  .135973095894D-06
     .939195999180D+00  .168406250000D+03 -.283626573975D+01 -.841427905993D-08
     .328227957726D-09  .100000000000D+01  .168000000000D+04  .000000000000D+00
     .240000000000D+01  .000000000000D+00 -.172294676304D-07  .630000000000D+02
     .864060000000D+05  .400000000000D+01
 3 12  3 19  2  0  0.0  .242972746491D-04  .522959453519D-11  .000000000000D+00
     .840000000000D+02 -.865000000000D+02  .538701010488D-08 -.144211487216D+00
    -.439584255219D-05  .150832063518D-01  .705756247044D-05  .515371128082D+04
     .936000000000D+05 -.130385160446D-06 -.115508600599D+01  .165775418282D-06
     .930575602255D+00  .227031250000D+03  .117611996209D+01 -.884286834096D-08
    -.354300472323D-09  .100000000000D+01  .168000000000D+04  .000000000000D+00
     .240000000000D+01  .000000000000D+00 -.419095158577D-08  .840000000000D+02
     .864060000000D+05  .400000000000D+01
 4 12  3 19  2  0  0.0  .127062201500D-03  .114823706099D-10  .000000000000D+00
     .660000000000D+02  .333437500000D+02  .485270213452D-08  .280511040351D+01
     .161677598953D-05  .100066099549D-01  .105984508991D-04  .515357574844D+04
     .936000000000D+05  .465661287308D-07  .244965076464D-01 -.670552253723D-07
     .938254539713D+00  .162531250000D+03  .841770561728D+00 -.804140638542D-08
     .386444668400D-09  .100000000000D+01  .168000000000D+04  .000000000000D+00
     .240000000000D+01  .000000000000D+00 -.605359673500D-08  .660000000000D+02
     .864060000000D+05  .400000000000D+01
 6 12  3 19  2  0  0.0  .319387763739D-04 -.113686837722D-12  .000000000000D+00
     .340000000000D+02 -.972812500000D+02  .509128350097D-08  .177744569891D+01
    -.488385558128D-05  .714663392864D-02  .728480517864D-05  .515370030975D+04
     .936000000000D+05  .800937414169D-07 -.107899340173D+01  .577419996262D-07
     .937551660241D+00  .222968750000D+03 -.592637523400D+00 -.835641950699D-08
    -.445018536808D-09  .100000000000D+01  .168000000000D+04  .000000000000D+00
     .240000000000D+01  .000000000000D+00 -.512227416039D-08  .340000000000D+02
     .864060000000D+05  .400000000000D+01
 7 12  3 19  2  0  0.0  .654924660921D-04  .306954461848D-11  .000000000000D+00
     .540000000000D+02  .791562500000D+02  .414017245480D-08 -.175977047398D+01
     .396557152271D-05  .514667958487D-02  .931508839130D-05  .515361883545D+04
     .936000000000D+05  .167638063431D-07 -.310268314641D+01 -.353902578354D-07
     .976005287041D+00  .209656250000D+03 -.301854563086D+01 -.785068415536D-08
     .332156692802D-09  .100000000000D+01  .168000000000D+04  .000000000000D+00
     .240000000000D+01  .000000000000D+00 -.107102096081D-07  .540000000000D+02
     .864060000000D+05  .400000000000D+01
 8 12  3 19  2  0  0.0  .846572220325D-06  .113686837722D-12  .000000000000D+00
     .180000000000D+02  .860625000000D+02  .366550982605D-08 -.238759710347D+01
     .428780913353D-05  .121171439532D-01  .935792922974D-05  .515369872475D+04
     .936000000000D+05 -.856816768646D-07 -.302090817334D+01 -.162050127983D-06
     .998088396788D+00  .222937500000D+03 -.297771432770D+01 -.757102964949D-08
     .398588031363D-09  .100000000000D+01  .168000000000D+04  .000000000000D+00
     .240000000000D+01  .000000000000D+00 -.465661287308D-08  .180000000000D+02
     .864060000000D+05  .400000000000D+01
 9 12  3 19  2  0  0.0  .145662575960D-03  .250111042988D-11  .000000000000D+00
     .190000000000D+02  .921562500000D+02  .387766152017D-08 -.243381322230D+01
     .469572842121D-05  .172925228253D-01  .994652509689D-05  .515363169098D+04
     .936000000000D+05  .204890966415D-06 -.312890967464D+01  .819563865662D-07
     .984782491229D+00  .195625000000D+03  .160572708594D+01 -.747423990352D-08
     .391087718945D-09  .100000000000D+01  .168000000000D+04  .000000000000D+00
     .240000000000D+01  .000000000000D+00 -.558793544769D-08  .190000000000D+02
     .864060000000D+05  .400000000000D+01
10 12  3 19  2  0  0.0 -.327019952238D-04 -.125055521494D-11  .000000000000D+00
     .750000000000D+02  .968750000000D+01  .523378943691D-08  .201977845033D+01
     .407919287682D-06  .112308535026D-01  .467896461487D-05  .515367533112D+04
     .936000000000D+05 -.234693288803D-06  .109237849505D+01 -.115483999252D-06
     .946248128907D+00  .282843750000D+03  .748288128838D+00 -.851178312136D-08
     .539308178636D-10  .100000000000D+01  .168000000000D+04  .000000000000D+00
     .240000000000D+01  .000000000000D+00 -.232830643654D-08  .750000000000D+02
     .864060000000D+05  .400000000000D+01
11 12  3 19  2  0  0.0 -.242995563895D-03 -.375166564481D-11  .000000000000D+00
     .670000000000D+02  .543750000000D+01  .585988694496D-08 -.161688233807D+01
     .268220901489D-06  .127744044876D-01  .108834356070D-04  .515368181992D+04
     .936000000000D+05  .320374965668D-06 -.244964024626D+00  .931322574615D-08
     .888515822410D+00  .128656250000D+03  .103363282373D+01 -.852428364206D-08
     .135719938995D-09  .100000000000D+01  .168000000000D+04  .000000000000D+00
     .240000000000D+01  .000000000000D+00 -.116415321827D-07  .670000000000D+02
     .864060000000D+05  .400000000000D+01
12 12  3 19  2  0  0.0  .586234964430D-04  .216004991671D-11  .000000000000D+00
     .640000000000D+02 -.968750000000D+00  .459876298551D-08 -.190517969466D+01
     .000000000000D+00  .393302517477D-02  .296905636787D-05  .515354329681D+04
     .936000000000D+05 -.204890966415D-07 -.204693392861D+01 -.856816768646D-07
     .978677682882D+00  .330375000000D+03 -.377102859391D-01 -.835249077191D-08
     .739316509786D-10  .100000000000D+01  .168000000000D+04  .000000000000D+00
     .240000000000D+01  .000000000000D+00 -.121071934700D-07  .640000000000D+02
     .864060000000D+05  .400000000000D+01
13 12  3 19  2  0  0.0  .218663830310D-03 -.227373675443D-11  .000000000000D+00
     .730000000000D+02 -.225625000000D+02  .385944647572D-08  .598754070202D+00
    -.124797224998D-05  .487401860300D-02  .101346522570D-04  .515370114136D+04
     .936000000000D+05 -.149011611938D-07  .220979378557D+01 -.335276126862D-07
     .986377311854D+00  .197000000000D+03  .194754261892D+01 -.776603777236D-08
    -.338942689752D-09  .100000000000D+01  .168000000000D+04  .000000000000D+00
     .240000000000D+01  .000000000000D+00 -.111758708954D-07  .730000000000D+02
     .864060000000D+05  .400000000000D+01
14 12  3 19  2  0  0.0  .197500921786D-03  .113686837722D-11  .000000000000D+00
     .240000000000D+02 -.337500000000D+02  .409267047615D-08  .654035054111D+00
    -.185519456863D-05  .615633302368D-02  .100564211607D-04  .515357018852D+04
     .936000000000D+05 -.117346644402D-06  .218357693893D+01  .745058059692D-08
     .979231634368D+00  .194687500000D+03 -.205394582956D+01 -.791568686299D-08
    -.423946230491D-09  .100000000000D+01  .168000000000D+04  .000000000000D+00
     .240000000000D+01  .000000000000D+00 -.884756445885D-08  .240000000000D+02
     .864060000000D+05  .400000000000D+01
